GLOBALSTAR M094 [+]     
1 39074U 13005C   24104.20753242 -.00000110  00000+0 -33818-4 0  9998
2 39074  51.9974  51.2750 0000716  59.6978 300.3959 12.62264155518072
GLOBALSTAR M096 [+]     
1 39075U 13005D   24104.45818217 -.00000118  00000+0 -79862-4 0  9997
2 39075  52.0060  98.6913 0000608  48.8942 311.1978 12.62264260517020
GLOBALSTAR M078 [+]     
1 39076U 13005E   24104.43237371 -.00000034  00000+0  39037-3 0  9997
2 39076  51.9861 183.8707 0000594 318.5221  41.5600 12.62261193515641
GLOBALSTAR M095 [+]     
1 39077U 13005F   24104.37878823 -.00000052  00000+0  28974-3 0  9992
2 39077  51.9792 181.4389 0000497  28.0519 332.0374 12.62265104515495
GLOBALSTAR M087 [+]     
1 52888U 22064A   24104.09986115 -.00000122  00000+0  11643-4 0  9999
2 52888  51.9757  75.3345 0009150 197.0481 163.0114 13.37569510 88810
